[{"OBJECT_NAME":"COSMOS 2538","OBJECT_ID":"2019-039D","EPOCH":"2026-03-09T23:22:28.343424","MEAN_MOTION":15.19536029,"ECCENTRICITY":0.00437345,"INCLINATION":97.5929,"RA_OF_ASC_NODE":147.7512,"ARG_OF_PERICENTER":31.8471,"MEAN_ANOMALY":328.5393,"EPHEMERIS_TYPE":0,"CLASSIFICATION_TYPE":"U","NORAD_CAT_ID":44424,"ELEMENT_SET_NO":999,"REV_AT_EPOCH":36483,"BSTAR":0.00035711669,"MEAN_MOTION_DOT":7.713e-5,"MEAN_MOTION_DDOT":0},{"OBJECT_NAME":"STARLINK-31818","OBJECT_ID":"2024-090M","EPOCH":"2026-03-09T08:04:56.864928","MEAN_MOTION":15.27574138,"ECCENTRICITY":0.0001345,"INCLINATION":43.002,"RA_OF_ASC_NODE":185.7023,"ARG_OF_PERICENTER":272.2238,"MEAN_ANOMALY":87.846,"EPHEMERIS_TYPE":0,"CLASSIFICATION_TYPE":"U","NORAD_CAT_ID":59741,"ELEMENT_SET_NO":999,"REV_AT_EPOCH":10338,"BSTAR":5.486458e-6,"MEAN_MOTION_DOT":-1.11e-6,"MEAN_MOTION_DDOT":0}]
